COSMOS 2501 [GLONASS-K] 
1 40315U 14075A   20270.47062182  .00000047  00000-0  00000+0 0  9991
2 40315  63.8583 263.2486 0018112 213.3155 339.4325  2.13096744 45321
GSAT-16                 
1 40332U 14078A   20270.77989932  .00000062  00000-0  00000-0 0  9995
2 40332   0.0501 253.2719 0005565 222.0237 226.5803  1.00270298 21174
DIRECTV 14              
1 40333U 14078B   20270.63745965 -.00000148  00000-0  00000-0 0  9993
2 40333   0.0163 165.0308 0000478 291.9318  39.1877  1.00271826 21106
CBERS 4                 
1 40336U 14079A   20271.08958957 -.00000011  00000-0  11498-4 0  9990
2 40336  98.5538 341.9313 0001511 107.3052 252.8304 14.35418952304267
YAOGAN 25A              
1 40338U 14080A   20271.19279599 -.00000177  00000-0 -13274-3 0  9991
2 40338  63.4013 284.2101 0178960   0.8149 359.3133 13.45192820284835
YAOGAN 25B              
1 40339U 14080B   20270.97000557 -.00000054  00000-0  56182-4 0  9992
2 40339  63.4020 284.8558 0179015   0.7043 359.4205 13.45193512284807
YAOGAN 25C              
1 40340U 14080C   20271.19298195 -.00000207  00000-0 -18021-3 0  9996
2 40340  63.4007 284.8805 0179062   1.0739 359.0636 13.45191895284814
YAMAL 401               
1 40345U 14082A   20270.85858609 -.00000252  00000-0  00000-0 0  9991
2 40345   0.0059 152.7258 0000415 307.8559 304.5644  1.00272858 20965
O3B FM10                
1 40348U 14083A   20270.70271705 -.00000034  00000-0  00000-0 0  9993
2 40348   0.0458  11.6073 0002594 172.9334 175.4583  5.00115556105518
O3B FM11                
1 40349U 14083B   20270.51601732 -.00000034  00000-0  00000+0 0  9999
2 40349   0.0493  15.3729 0003145 179.5782 165.0409  5.00115735105511
O3B FM12                
1 40350U 14083C   20269.38420816 -.00000032  00000-0  00000-0 0  9995
2 40350   0.0493  14.0551 0002602 175.0916 170.8500  5.00115556105460
O3B FM9                 
1 40351U 14083D   20270.76952415 -.00000034  00000-0  00000-0 0  9997
2 40351   0.0500  16.5497 0002670 169.4271 174.0213  5.00115236105532
KONDOR-E                
1 40353U 14084A   20271.06575898  .00006991  00000-0  16125-3 0  9995
2 40353  74.7406 200.2435 0002999 257.7473 102.3404 15.42690638323483
COSMOS 2502             
1 40358U 14086A   20269.00398453 -.00000076  00000-0 -11180-6 0  9992
2 40358  67.1522  56.7087 0004276 279.9202  80.1398 13.97437603293453
RESURS P2               
1 40360U 14087A   20271.16259468  .00000810  00000-0  27191-4 0  9999
2 40360  97.2425 357.9815 0009325 169.5490 248.8965 15.33664510321906
YAOGAN 26               
1 40362U 14088A   20271.14613155  .00000981  00000-0  43777-4 0  9994
2 40362  97.2380 335.6176 0011419 129.0851 289.2084 15.23608655320356
ASTRA 2G                
1 40364U 14089A   20271.06438236  .00000127  00000-0  00000+0 0  9992
2 40364   0.0445  24.4316 0002395  79.1340 314.1250  1.00274074 21076
FENGYUN 2G              
1 40367U 14090A   20270.93230041 -.00000323  00000-0  00000-0 0  9996
2 40367   2.3194  93.2200 0002155 305.5273  42.6237  1.00269306 21087
MUOS-3                  
1 40374U 15002A   20270.83773671 -.00000150  00000-0  00000-0 0  9996
2 40374   2.7405 349.9425 0059110 180.8217 121.4238  1.00273349 20638
SMAP                    
1 40376U 15003A   20271.06294361 -.00000005  00000-0  80899-5 0  9997
2 40376  98.1248 276.1044 0001597  75.2602 284.8785 14.63381403302080
FIREBIRD 3              
1 40377U 15003B   20270.82213093  .00001931  00000-0  76873-4 0  9998
2 40377  99.0875 351.7433 0122279 335.9313  23.6231 15.20426219312709
FIREBIRD 4              
1 40378U 15003C   20271.06846626  .00001990  00000-0  78989-4 0  9995
2 40378  99.0878 352.1457 0122422 334.9593  24.5729 15.20446415312750
GRIFEX                  
1 40379U 15003D   20271.15548727  .00001518  00000-0  66694-4 0  9993
2 40379  99.0929 343.5630 0132089   1.6844 358.4802 15.16679289312261
EXOCUBE (CP10)          
1 40380U 15003E   20270.76902451  .00001447  00000-0  66720-4 0  9990
2 40380  99.0994 338.4658 0137570  18.7944 341.8290 15.14587418311893
INMARSAT 5-F2           
1 40384U 15005A   20270.47082262 -.00000308  00000-0  00000-0 0  9994
2 40384   0.0244 175.2802 0000530 307.2955 357.6414  1.00268399 20038
COSMOS 2503             
1 40420U 15009A   20271.21020810 -.00000435  00000-0 -31015-4 0  9999
2 40420  97.9123 253.3067 0010654  21.6280 338.5411 14.98684178305485
ABS-3A                  
1 40424U 15010A   20270.76829694 -.00000049  00000-0  00000-0 0  9997
2 40424   0.0189 237.6158 0002113 211.7891 190.2872  1.00271134 20451
EUTELSAT 115 WEST B     
1 40425U 15010B   20270.67425667 -.00000048  00000-0  00000-0 0  9999
2 40425   0.0378  27.2804 0000450 249.0587 217.4467  1.00272814 20459
MMS 1                   
1 40482U 15011A   20269.20833333 -.00001414  00000-0  00000+0 0  9990
2 40482  30.3353 119.5599 8548362  24.1422 286.5787  0.28576340 11490
MMS 2                   
1 40483U 15011B   20269.20833333 -.00001413  00000-0  00000+0 0  9990
2 40483  30.3338 119.5610 8545836  24.1439 286.5666  0.28576341 11474
MMS 3                   
1 40484U 15011C   20269.20833333 -.00001414  00000-0  00000+0 0  9992
2 40484  30.3422 119.5577 8547412  24.1636 286.5535  0.28572448 11471
MMS 4                   
1 40485U 15011D   20269.20833333 -.00001414  00000-0  00000+0 0  9993
2 40485  30.3343 119.5728 8547554  24.1466 286.5263  0.28576310 11481
EXPRESS-AM7             
1 40505U 15012A   20271.00813278  .00000128  00000-0  00000+0 0  9994
2 40505   0.0238 188.2361 0003007   0.7587 220.1798  1.00268999 20415
NAVSTAR 73 (USA 260)    
1 40534U 15013A   20269.01721682  .00000002  00000-0  00000+0 0  9993
2 40534  54.1526 290.7654 0049538   8.6252 351.5024  2.00562282 40311
KOMPSAT-3A              
1 40536U 15014A   20271.12184632  .00000489  00000-0  32157-4 0  9991
2 40536  97.5477 209.4380 0002544 116.8979   8.7569 15.12088322304083
GSAT0203 (GALILEO 7)    
1 40544U 15017A   20269.03919306 -.00000076  00000-0  00000-0 0  9995
2 40544  56.4854  38.6705 0003489 220.2427 139.7263  1.70474980 33550
GSAT0204 (GALILEO 8)    
1 40545U 15017B   20270.57996965 -.00000081  00000-0  00000-0 0  9999
2 40545  56.4929  38.6441 0003361 177.1203 182.8735  1.70475253 34246
IRNSS-1D                
1 40547U 15018A   20270.93483025 -.00000295  00000-0  00000+0 0  9996
2 40547  29.0574 275.6070 0020178 188.6871 350.2426  1.00272526 20293
BEIDOU 17               
1 40549U 15019A   20270.56028221 -.00000168  00000-0  00000+0 0  9990
2 40549  52.9060 320.0339 0040676 191.9786 152.0361  1.00264998 20122
GONETS-M 11             
1 40552U 15020A   20271.18021937  .00000010  00000-0  48868-5 0  9997
2 40552  82.4827 252.5395 0014761 238.6233 121.3408 12.42872358249260
GONETS-M 12             
1 40553U 15020B   20271.15332142 -.00000017  00000-0 -19592-3 0  9997
2 40553  82.4857 253.0882 0013179 220.5056 139.5044 12.42895138249264
GONETS-M 13             
1 40554U 15020C   20270.72763708  .00000000  00000-0 -69016-4 0  9994
2 40554  82.4810 252.6543 0011913 205.5804 154.4688 12.42886060249210
COSMOS 2504             
1 40555U 15020D   20270.87369630  .00000100  00000-0  30265-4 0  9991
2 40555  82.5193  42.7471 0616121 182.3285 177.4972 13.59419667266181
THOR 7                  
1 40613U 15022A   20270.76882036 -.00000031  00000-0  00000-0 0  9990
2 40613   0.0127 152.2349 0002750  21.5108 108.3982  1.00272419 19875
TURKMENALEM52E/MONACOSAT
1 40617U 15023A   20270.75570296  .00000081  00000-0  00000+0 0  9999
2 40617   0.0226 173.0565 0003492  10.5416 146.4811  1.00269101 19872
AEROCUBE 8A             
1 40659U 15025J   20270.26363950  .00034462  00000-0  32948-3 0  9990
2 40659  55.0140 185.5117 0102985  78.9491 282.3109 15.59860275 59278
AEROCUBE 8B             
1 40660U 15025K   20270.21648731  .00033831  00000-0  31936-3 0  9995
2 40660  55.0115 183.3656 0102069  80.9724 280.2848 15.60278302 59285
DIRECTV 15              
1 40663U 15026A   20270.63557462 -.00000126  00000-0  00000-0 0  9992
2 40663   0.0166 153.2934 0000761   3.8554 334.7266  1.00272743 19513
SKY MEXICO-1            
1 40664U 15026B   20270.53781976 -.00000257  00000-0  00000-0 0  9996
2 40664   0.0171 226.2030 0002174 310.4794 303.9666  1.00271818 19560
SENTINEL-2A             
1 40697U 15028A   20271.15163328  .00000006  00000-0  18973-4 0  9991
2 40697  98.5701 343.9313 0001245  83.4355 276.6978 14.30816539275003
COSMOS 2506             
1 40699U 15029A   20271.13863176 -.00000031  00000-0  36026-5 0  9999
2 40699  98.3578 323.5807 0009114 163.5541 196.5959 14.54313553279363
GAOFEN 8                
1 40701U 15030A   20271.14211067  .00001176  00000-0  52227-4 0  9992
2 40701  97.4846  33.2948 0010370 141.5366 321.6481 15.23502005292728
DMC3-FM1                
1 40715U 15032A   20271.02952899  .00000011  00000-0  92369-5 0  9990
2 40715  97.9186 162.3794 0014279 258.4353 101.5260 14.73700214280615
DMC3-FM2                
1 40716U 15032B   20270.91642813  .00000011  00000-0  92889-5 0  9997
2 40716  97.9211 162.6571 0011434 269.3183  90.6715 14.73677443280602
DMC3-FM3                
1 40717U 15032C   20271.00660618  .00000003  00000-0  81066-5 0  9998
2 40717  97.9223 163.4837 0015060 259.6502 100.3012 14.73678619280612
CARBONITE 1 (CBNT-1)    
1 40718U 15032D   20271.09249334  .00000083  00000-0  19650-4 0  9993
2 40718  97.8223 148.6919 0015311 242.9270 117.0380 14.74843535280798
NAVSTAR 74 (USA 262)    
1 40730U 15033A   20270.67563330 -.00000106  00000-0  00000-0 0  9998
2 40730  55.5257 351.9156 0055171 353.7568   6.2125  2.00557845 38105
METEOSAT-11 (MSG-4)     
1 40732U 15034A   20270.84078997 -.00000026  00000-0  00000-0 0  9991
2 40732   0.6044 270.2624 0002152 258.2634 140.5542  1.00263748 19096
STAR ONE C4             
1 40733U 15034B   20271.07742390 -.00000288  00000-0  00000+0 0  9992
2 40733   0.0445   4.7928 0001591 205.4077 114.0168  1.00272243 19061
WGS F7 (USA 263)        
1 40746U 15036A   20270.71507814 -.00000005  00000-0  00000-0 0  9996
2 40746   0.0030 189.0550 0000066 277.2890 332.0778  1.00271216 18921
